
*******************************************************************************
 Revised: Sep 13, 2021     Spitzer Space Telescope (SST) / (Sun)            -79
                              http://spitzer.caltech.edu/

 NOTE:
  - The final Spitzer science observations began 2020-Jan-28
  - On 2020-Jan-30, the mission was completed, the spacecraft decommissioned
     and placed in a permanent storage mode.
  - The spacecraft will drift in its Earth trailing orbit until eventually
     returning to the vicinity of Earth in ~2051.

 Spitzer Space Telescope
  Launched: Aug 25, 2003
  Renamed : Dec 18, 2003 (formerly "SIRTF": Space Infrared Telescope Facility)

 EXTENDED MISSION (2009-present):
  Cryogen depletion occurred 2009-May-15. A 2-year extended "warm" mission
  will continue operating the 3.6 and 4.5 micron channels on the IRAC
  instrument with expected sensitivity unchanged from performance in the
  cryogenic mission. The longer wavelength IRAC channels (5.6 and 8.0 microns)
  and the MIPS and IRS instruments will be unavailable.

 PRIME MISSION (2003-2009):
  Spitzer will obtain images and spectra by detecting infrared (heat) energy,
  having wavelengths of 3 and 180 microns, radiated by objects in space.  Most
  of this infrared radiation is blocked by the Earth's atmosphere and cannot be
  observed from the ground.  The telescope must be cooled to near absolute zero
  (-459 degrees F, or -273 degrees Celsius) to record infrared from distant
  regions of space without interference from the telescope's own heat.

 SPACECRAFT:
  0.85-meter telescope
  3 cryogenically-cooled science instruments
  2 solar panels composed of 392 solar cells, producing 427 Watts.
  Each solar cell is 5.5 x 6.5 cm. Each panel is 50% covered by solar cells,
   and 50% covered by optical reflectors to reduce panel temp to 330 K.
  Spitzer cannot point more than 120 degrees away from the sun and maintain
   adequate power levels.

 SPACECRAFT TRAJECTORY:
   Trajectory was created 2020-Feb-07 11:45:41 and is based on 2-way
   Doppler tracking data available up until the spacecraft was placed in
   final safe mode at 2020-Jan-30 22:30 UTC. The trajectory after that
   is a nominal long-term prediction.
*******************************************************************************


*******************************************************************************
Ephemeris / MAIL_REQUEST Tue Feb 10 12:31:38 2026 Pasadena, USA  / Horizons   
*******************************************************************************
Target body name: Spitzer Space Telescope (spacecraft) (-79) {source: SPITZER_merge_2003-2120}
Center body name: Earth (399)                     {source: SPITZER_merge_2003-2120}
Center-site name: GEOCENTRIC
*******************************************************************************
Start time      : A.D. 2014-Jan-01 00:00:00.0000 UT     
Stop  time      : A.D. 2020-Jan-01 00:00:00.0000 UT     
Step-size       : 1440 minutes
*******************************************************************************
Target pole/equ : undefined
Target radii    : undefined                                                   
Center geodetic : 0.0, 0.0, -6378.137             {E-lon(deg),Lat(deg),Alt(km)}
Center cylindric: 0.0, 0.0, 0.0                   {E-lon(deg),Dxy(km),Dz(km)}
Center pole/equ : ITRF93                          {East-longitude positive}
Center radii    : 6378.137, 6378.137, 6356.752 km {Equator_a, b, pole_c}       
Target primary  : Earth
Vis. interferer : MOON (R_eq= 1737.400) km        {source: DE441}
Rel. light bend : Sun                             {source: SPITZER_merge_2003-2
Rel. lght bnd GM: 1.3271E+11 km^3/s^2                                         
Atmos refraction: NO (AIRLESS)
RA format       : HMS
Time format     : CAL
Calendar mode   : Mixed Julian/Gregorian
EOP file        : eop.260209.p260508                                           
EOP coverage    : DATA-BASED 1962-JAN-20 TO 2026-FEB-09. PREDICTS-> 2026-MAY-07
Units conversion: 1 au= 149597870.700 km, c= 299792.458 km/s, 1 day= 86400.0 s
Table cut-offs 1: Elevation (-90.0deg=NO ),Airmass (>38.000=NO), Daylight (NO )
Table cut-offs 2: Solar elongation (  0.0,180.0=NO ),Local Hour Angle( 0.0=NO )
Table cut-offs 3: RA/DEC angular rate (     0.0=NO )                           
*******************************************************************************************
 Date__(UT)__HR:MN     R.A._____(ICRF)_____DEC             delta      deldot  1-way_down_LT
*******************************************************************************************
$$SOE
 2019-Jul-24 00:00     10 13 55.09 +10 26 25.2  1.72703238225721  -0.4335918    14.36329034
 2019-Jul-25 00:00     10 17 35.88 +10 05 08.4  1.72678318570369  -0.4293248    14.36121784
 2019-Jul-26 00:00     10 21 16.22 +09 43 42.2  1.72653642170209  -0.4251798    14.35916556
 2019-Jul-27 00:00     10 24 56.13 +09 22 07.0  1.72629200028327  -0.4212227    14.35713277
 2019-Jul-28 00:00     10 28 35.61 +09 00 23.2  1.72604979141769  -0.4175318    14.35511838
 2019-Jul-29 00:00     10 32 14.69 +08 38 31.0  1.72580962341949  -0.4141647    14.35312097
 2019-Jul-30 00:00     10 35 53.39 +08 16 30.9  1.72557129644761  -0.4111607    14.35113886
 2019-Jul-31 00:00     10 39 31.72 +07 54 23.1  1.72533459857268  -0.4085191    14.34917031
 2019-Aug-01 00:00     10 43 09.69 +07 32 08.0  1.72509933357309  -0.4061844    14.34721367
 2019-Aug-02 00:00     10 46 47.31 +07 09 45.8  1.72486469434164  -0.4040371    14.34526223
 2019-Aug-03 00:00     10 50 24.61 +06 47 17.2  1.72463194178460  -0.4019108    14.34332649
 2019-Aug-04 00:00     10 54 01.61 +06 24 42.4  1.72440045934358  -0.3996055    14.34140131
 2019-Aug-05 00:00     10 57 38.31 +06 02 01.7  1.72417040505293  -0.3969365    14.33948800
 2019-Aug-06 00:00     11 01 14.74 +05 39 15.5  1.72394203644388  -0.3937458    14.33758872
 2019-Aug-07 00:00     11 04 50.89 +05 16 24.1  1.72371568940624  -0.3899223    14.33570625
 2019-Aug-08 00:00     11 08 26.81 +04 53 28.0  1.72349174938195  -0.3854032    14.33384380
 2019-Aug-09 00:00     11 12 02.49 +04 30 27.4  1.72327062794893  -0.3801611    14.33200479
 2019-Aug-10 00:00     11 15 37.97 +04 07 22.7  1.72305274193483  -0.3742014    14.33019268
 2019-Aug-11 00:00     11 19 13.25 +03 44 14.2  1.72283850057273  -0.3675465    14.32841089
 2019-Aug-12 00:00     11 22 48.36 +03 21 02.3  1.72262829518657  -0.3602346    14.32666267
 2019-Aug-13 00:00     11 26 23.33 +02 57 47.4  1.72242249093458  -0.3523137    14.32495105
 2019-Aug-14 00:00     11 29 58.16 +02 34 29.8  1.72222142511735  -0.3438361    14.32327883
 2019-Aug-15 00:00     11 33 32.88 +02 11 09.7  1.72202540167829  -0.3348643    14.32164856
 2019-Aug-16 00:00     11 37 07.51 +01 47 47.6  1.72183468783275  -0.3254609    14.32006244
 2019-Aug-17 00:00     11 40 42.08 +01 24 23.8  1.72164951355282  -0.3156934    14.31852239
 2019-Aug-18 00:00     11 44 16.61 +01 00 58.6  1.72147007038807  -0.3056286    14.31703001
 2019-Aug-19 00:00     11 47 51.11 +00 37 32.3  1.72129650944962  -0.2953338    14.31558654
 2019-Aug-20 00:00     11 51 25.60 +00 14 05.3  1.72112894445311  -0.2848778    14.31419295
 2019-Aug-21 00:00     11 55 00.12 -00 09 22.1  1.72096744849449  -0.2743307    14.31284983
 2019-Aug-22 00:00     11 58 34.68 -00 32 49.5  1.72081205383687  -0.2637633    14.31155745
 2019-Aug-23 00:00     12 02 09.30 -00 56 16.7  1.72066274989256  -0.2532530    14.31031573
 2019-Aug-24 00:00     12 05 44.01 -01 19 43.2  1.72051948069753  -0.2428807    14.30912419
 2019-Aug-25 00:00     12 09 18.82 -01 43 08.9  1.72038214124913  -0.2327351    14.30798198
 2019-Aug-26 00:00     12 12 53.76 -02 06 33.2  1.72025057419838  -0.2229068    14.30688777
 2019-Aug-27 00:00     12 16 28.85 -02 29 56.0  1.72012457227083  -0.2134770    14.30583984
 2019-Aug-28 00:00     12 20 04.10 -02 53 16.8  1.72000388694777  -0.2045033    14.30483613
 2019-Aug-29 00:00     12 23 39.54 -03 16 35.3  1.71988824835576  -0.1959985    14.30387439
 2019-Aug-30 00:00     12 27 15.18 -03 39 51.2  1.71977739690678  -0.1879125    14.30295247
 2019-Aug-31 00:00     12 30 51.05 -04 03 04.1  1.71967112248765  -0.1801241    14.30206861
 2019-Sep-01 00:00     12 34 27.16 -04 26 13.6  1.71956930172949  -0.1724582    14.30122180
 2019-Sep-02 00:00     12 38 03.51 -04 49 19.6  1.71947082775914  -0.1647098    14.30040281
 2019-Sep-03 00:00     12 41 40.14 -05 12 21.3  1.71937799024937  -0.1567030    14.29963071
 2019-Sep-04 00:00     12 45 17.06 -05 35 18.6  1.71928989231067  -0.1482769    14.29889802
 2019-Sep-05 00:00     12 48 54.28 -05 58 11.0  1.71920680852192  -0.1393270    14.29820703
 2019-Sep-06 00:00     12 52 31.82 -06 20 58.2  1.71912906020641  -0.1297952    14.29756042
 2019-Sep-07 00:00     12 56 09.70 -06 43 39.9  1.71905699330213  -0.1196523    14.29696106
 2019-Sep-08 00:00     12 59 47.94 -07 06 15.7  1.71899095879780  -0.1089082    14.29641186
 2019-Sep-09 00:00     13 03 26.55 -07 28 45.2  1.71893129853807  -0.0975843    14.29591568
 2019-Sep-10 00:00     13 07 05.56 -07 51 08.0  1.71887834108955  -0.0857030    14.29547525
 2019-Sep-11 00:00     13 10 44.97 -08 13 23.9  1.71883239920666  -0.0732973    14.29509316
 2019-Sep-12 00:00     13 14 24.81 -08 35 32.4  1.71879376475915  -0.0604063    14.29477185
 2019-Sep-13 00:00     13 18 05.10 -08 57 33.2  1.71876270556535  -0.0470738    14.29451354
 2019-Sep-14 00:00     13 21 45.85 -09 19 26.0  1.71873946289086  -0.0333489    14.29432024
 2019-Sep-15 00:00     13 25 27.08 -09 41 10.4  1.71872424727030  -0.0192877    14.29419369
 2019-Sep-16 00:00     13 29 08.82 -10 02 46.0  1.71871723574793  -0.0049513    14.29413538
 2019-Sep-17 00:00     13 32 51.06 -10 24 12.5  1.71871856783383   0.0095931    14.29414646
 2019-Sep-18 00:00     13 36 33.84 -10 45 29.6  1.71872834326813   0.0242725    14.29422776
 2019-Sep-19 00:00     13 40 17.17 -11 06 36.9  1.71874661752297   0.0390094    14.29437974
